OBJECT_NAME,OBJECT_ID,EPOCH,MEAN_MOTION,ECCENTRICITY,INCLINATION,RA_OF_ASC_NODE,ARG_OF_PERICENTER,MEAN_ANOMALY,EPHEMERIS_TYPE,CLASSIFICATION_TYPE,NORAD_CAT_ID,ELEMENT_SET_NO,REV_AT_EPOCH,BSTAR,MEAN_MOTION_DOT,MEAN_MOTION_DDOT
IRIDIUM 135,2017-083A,2026-06-11T22:03:15.177888,14.34217682,.00021646,86.3962,324.2186,91.4373,268.7070,0,U,43070,999,44339,.1496639E-5,.24E-6,0
IRIDIUM 138,2017-083B,2026-06-11T22:39:47.183904,14.34218306,.00023721,86.3977,323.9026,87.6396,272.5071,0,U,43071,999,44338,.34065034E-4,.115E-5,0
IRIDIUM 116,2017-083C,2026-06-11T21:54:07.150464,14.34217753,.00018884,86.3959,324.2071,95.8875,264.2537,0,U,43072,999,44341,.17392674E-4,.68E-6,0
IRIDIUM 130,2017-083D,2026-06-11T22:48:55.097280,14.34217191,.00018394,86.3965,324.4661,89.4137,270.7269,0,U,43073,999,44336,-.35962984E-4,-.81E-6,0
IRIDIUM 151,2017-083E,2026-06-11T22:12:23.174208,14.34217650,.00021263,86.3962,324.2596,92.5510,267.5929,0,U,43074,999,44338,.5367707E-5,.35E-6,0
IRIDIUM 134,2017-083F,2026-06-11T23:07:11.145216,14.34217677,.00019731,86.3960,324.2516,89.8867,270.2554,0,U,43075,999,44335,-.930978E-6,.17E-6,0
IRIDIUM 137,2017-083G,2026-06-11T21:44:59.174016,14.34217623,.00020962,86.3964,324.3680,103.5479,256.5950,0,U,43076,999,44341,.8896581E-5,.45E-6,0
IRIDIUM 141,2017-083H,2026-06-11T23:16:19.171776,14.34217888,.00022082,86.3960,324.1725,90.7425,269.4024,0,U,43077,999,44342,.12254339E-4,.54E-6,0
IRIDIUM 153,2017-083J,2026-06-11T22:07:27.438240,14.34217577,.00021766,86.3955,292.6728,90.3497,269.7948,0,U,43078,999,44452,-.1493742E-5,.16E-6,0
IRIDIUM 131,2017-083K,2026-06-11T22:58:03.189504,14.34217411,.0002093,86.3963,324.3636,91.8341,268.3095,0,U,43079,999,44335,-.3707477E-5,.9E-7,0
IRIDIUM 144,2018-030A,2026-06-11T20:36:07.387776,14.34217794,.00020664,86.3955,292.6283,95.6837,264.4595,0,U,43249,999,42937,.9999828E-5,.48E-6,0
IRIDIUM 149,2018-030B,2026-06-11T19:04:47.398656,14.34217875,.0002235,86.3954,292.6220,93.3735,266.7717,0,U,43250,999,42938,.2765808E-5,.28E-6,0
IRIDIUM 157,2018-030C,2026-06-11T21:12:39.424032,14.34217567,.00020851,86.3953,292.6380,94.1669,265.9765,0,U,43251,999,42937,-.2292027E-5,.13E-6,0
IRIDIUM 140,2018-030D,2026-06-11T18:19:07.390272,14.34217618,.00020097,86.3954,292.7010,93.0312,267.1113,0,U,43252,999,42941,-.158905E-6,.19E-6,0
IRIDIUM 145,2018-030E,2026-06-11T21:21:47.320128,14.34217793,.00018945,86.3954,292.6200,98.9902,261.1508,0,U,43253,999,42936,.69019668E-4,.213E-5,0
IRIDIUM 146,2018-030F,2026-06-11T20:54:23.409792,14.34217629,.00020878,86.3956,292.6403,95.9587,264.1847,0,U,43254,999,42937,-.2312252E-5,.13E-6,0
IRIDIUM 148,2018-030G,2026-06-11T21:49:11.442144,14.34217359,.00021055,86.3953,292.6675,97.5573,262.5862,0,U,43255,999,42941,.622491E-6,.22E-6,0
IRIDIUM 142,2018-030H,2026-06-11T21:03:31.362048,14.34217068,.00020216,86.3952,292.5698,97.0788,263.0637,0,U,43256,999,42937,.42528335E-4,.139E-5,0
IRIDIUM 150,2018-030J,2026-06-11T20:17:51.402048,14.34217528,.00020193,86.3953,292.6994,93.2990,266.8437,0,U,43257,999,42939,-.4914851E-5,.6E-7,0
IRIDIUM 143,2018-030K,2026-06-11T21:30:55.385568,14.34218187,.00020611,86.3958,292.7704,95.3087,264.8344,0,U,43258,999,42933,.60907141E-4,.19E-5,0
IRIDIUM 161,2018-047C,2026-06-11T19:55:57.201024,14.43279946,.0002554,86.4483,90.7107,86.5739,273.5754,0,U,43478,999,42436,.71250945E-4,.26E-5,0
IRIDIUM 152,2018-047D,2026-06-11T20:51:38.315808,14.34217365,.0002242,86.3958,90.5556,83.2511,276.8940,0,U,43479,999,42172,-.9837082E-5,-.8E-7,0
IRIDIUM 147,2018-047E,2026-06-11T21:00:46.248192,14.34217773,.00021669,86.3960,90.5580,85.0730,275.0713,0,U,43480,999,42172,.905271E-5,.45E-6,0
IRIDIUM 110,2018-047F,2026-06-11T21:09:54.314496,14.34217853,.00025875,86.3963,90.6472,84.6146,275.5345,0,U,43481,999,42171,.3683163E-5,.3E-6,0
IRIDIUM 162,2018-047G,2026-06-11T19:46:53.351040,14.43278607,.00023222,86.4480,90.6044,82.8867,277.2597,0,U,43482,999,42435,.7099757E-4,.259E-5,0
IRIDIUM 160,2018-061A,2026-06-11T18:11:26.524896,14.34217355,.00021734,86.3962,59.0673,85.5703,274.5742,0,U,43569,999,41259,-.10135774E-4,-.9E-7,0
IRIDIUM 166,2018-061B,2026-06-11T18:47:58.479072,14.34217869,.0002126,86.3967,59.0073,86.0870,274.0568,0,U,43570,999,41262,.34957506E-4,.118E-5,0
IRIDIUM 158,2018-061C,2026-06-11T18:02:18.473280,14.34217706,.00022462,86.3965,59.0307,82.3645,277.7806,0,U,43571,999,41258,.15446134E-4,.63E-6,0
IRIDIUM 165,2018-061D,2026-06-11T23:40:14.277504,14.34217045,.00020767,86.3968,58.9789,85.5564,274.5870,0,U,43572,999,41264,.40305617E-4,.133E-5,0
IRIDIUM 155,2018-061E,2026-06-11T19:24:30.458304,14.34217627,.00021495,86.3962,58.9223,82.4080,277.7359,0,U,43573,999,41258,-.4925974E-5,.6E-7,0
