IRIDIUM 135             
1 43070U 17083A   26162.91892567  .00000024  00000+0  14966-5 0  9993
2 43070  86.3962 324.2186 0002164  91.4373 268.7070 14.34217682443397
IRIDIUM 138             
1 43071U 17083B   26162.94429611  .00000115  00000+0  34065-4 0  9995
2 43071  86.3977 323.9026 0002372  87.6396 272.5071 14.34218306443383
IRIDIUM 116             
1 43072U 17083C   26162.91258276  .00000068  00000+0  17393-4 0  9992
2 43072  86.3959 324.2071 0001888  95.8875 264.2537 14.34217753443416
IRIDIUM 130             
1 43073U 17083D   26162.95063770 -.00000081  00000+0 -35963-4 0  9990
2 43073  86.3965 324.4661 0001839  89.4137 270.7269 14.34217191443361
IRIDIUM 151             
1 43074U 17083E   26162.92526822  .00000035  00000+0  53677-5 0  9990
2 43074  86.3962 324.2596 0002126  92.5510 267.5929 14.34217650443383
IRIDIUM 134             
1 43075U 17083F   26162.96332344  .00000017  00000+0 -93098-6 0  9992
2 43075  86.3960 324.2516 0001973  89.8867 270.2554 14.34217677443358
IRIDIUM 137             
1 43076U 17083G   26162.90624044  .00000045  00000+0  88966-5 0  9995
2 43076  86.3964 324.3680 0002096 103.5479 256.5950 14.34217623443411
IRIDIUM 141             
1 43077U 17083H   26162.96966634  .00000054  00000+0  12254-4 0  9992
2 43077  86.3960 324.1725 0002208  90.7425 269.4024 14.34217888443428
IRIDIUM 153             
1 43078U 17083J   26162.92184535  .00000016  00000+0 -14937-5 0  9991
2 43078  86.3955 292.6728 0002176  90.3497 269.7948 14.34217577444529
IRIDIUM 131             
1 43079U 17083K   26162.95698136  .00000009  00000+0 -37075-5 0  9992
2 43079  86.3963 324.3636 0002093  91.8341 268.3095 14.34217411443357
IRIDIUM 144             
1 43249U 18030A   26162.85841884  .00000048  00000+0  99998-5 0  9997
2 43249  86.3955 292.6283 0002066  95.6837 264.4595 14.34217794429376
IRIDIUM 149             
1 43250U 18030B   26162.79499304  .00000028  00000+0  27658-5 0  9990
2 43250  86.3954 292.6220 0002235  93.3735 266.7717 14.34217875429380
IRIDIUM 157             
1 43251U 18030C   26162.88378963  .00000013  00000+0 -22920-5 0  9990
2 43251  86.3953 292.6380 0002085  94.1669 265.9765 14.34217567429376
IRIDIUM 140             
1 43252U 18030D   26162.76327998  .00000019  00000+0 -15891-6 0  9996
2 43252  86.3954 292.7010 0002009  93.0312 267.1113 14.34217618429411
IRIDIUM 145             
1 43253U 18030E   26162.89013102  .00000213  00000+0  69020-4 0  9996
2 43253  86.3954 292.6200 0001894  98.9902 261.1508 14.34217793429362
IRIDIUM 146             
1 43254U 18030F   26162.87110428  .00000013  00000+0 -23123-5 0  9998
2 43254  86.3956 292.6403 0002087  95.9587 264.1847 14.34217629429379
IRIDIUM 148             
1 43255U 18030G   26162.90916021  .00000022  00000+0  62249-6 0  9998
2 43255  86.3953 292.6675 0002105  97.5573 262.5862 14.34217359429416
IRIDIUM 142             
1 43256U 18030H   26162.87744632  .00000139  00000+0  42528-4 0  9997
2 43256  86.3952 292.5698 0002021  97.0788 263.0637 14.34217068429378
IRIDIUM 150             
1 43257U 18030J   26162.84573382  .00000006  00000+0 -49149-5 0  9998
2 43257  86.3953 292.6994 0002019  93.2990 266.8437 14.34217528429392
IRIDIUM 143             
1 43258U 18030K   26162.89647437  .00000190  00000+0  60907-4 0  9994
2 43258  86.3958 292.7704 0002061  95.3087 264.8344 14.34218187429336
IRIDIUM 161             
1 43478U 18047C   26162.83052316  .00000260  00000+0  71251-4 0  9998
2 43478  86.4483  90.7107 0002554  86.5739 273.5754 14.43279946424360
IRIDIUM 152             
1 43479U 18047D   26162.86919347 -.00000008  00000+0 -98371-5 0  9993
2 43479  86.3958  90.5556 0002242  83.2511 276.8940 14.34217365421726
IRIDIUM 147             
1 43480U 18047E   26162.87553528  .00000045  00000+0  90527-5 0  9995
2 43480  86.3960  90.5580 0002166  85.0730 275.0713 14.34217773421728
IRIDIUM 110             
1 43481U 18047F   26162.88187864  .00000030  00000+0  36832-5 0  9996
2 43481  86.3963  90.6472 0002587  84.6146 275.5345 14.34217853421710
IRIDIUM 162             
1 43482U 18047G   26162.82422860  .00000259  00000+0  70998-4 0  9992
2 43482  86.4480  90.6044 0002322  82.8867 277.2597 14.43278607424353
IRIDIUM 160             
1 43569U 18061A   26162.75794589 -.00000009  00000+0 -10136-4 0  9999
2 43569  86.3962  59.0673 0002173  85.5703 274.5742 14.34217355412591
IRIDIUM 166             
1 43570U 18061B   26162.78331573  .00000118  00000+0  34958-4 0  9991
2 43570  86.3967  59.0073 0002126  86.0870 274.0568 14.34217869412626
IRIDIUM 158             
1 43571U 18061C   26162.75160270  .00000063  00000+0  15446-4 0  9993
2 43571  86.3965  59.0307 0002246  82.3645 277.7806 14.34217706412587
IRIDIUM 165             
1 43572U 18061D   26162.98627636  .00000133  00000+0  40306-4 0  9994
2 43572  86.3968  58.9789 0002076  85.5564 274.5870 14.34217045412648
IRIDIUM 155             
1 43573U 18061E   26162.80868586  .00000006  00000+0 -49260-5 0  9996
2 43573  86.3962  58.9223 0002149  82.4080 277.7359 14.34217627412582
